[{"OBJECT_NAME":"CELESTIS-17 & SHERPA-FX1","OBJECT_ID":"2021-006CB","EPOCH":"2026-03-09T15:26:05.078112","MEAN_MOTION":15.30994801,"ECCENTRICITY":0.000663,"INCLINATION":97.2397,"RA_OF_ASC_NODE":112.1052,"ARG_OF_PERICENTER":178.1385,"MEAN_ANOMALY":181.9882,"EPHEMERIS_TYPE":0,"CLASSIFICATION_TYPE":"U","NORAD_CAT_ID":47486,"ELEMENT_SET_NO":999,"REV_AT_EPOCH":28406,"BSTAR":0.00024301,"MEAN_MOTION_DOT":7.207e-5,"MEAN_MOTION_DDOT":0},{"OBJECT_NAME":"STARLINK-35212","OBJECT_ID":"2025-198E","EPOCH":"2026-03-09T22:03:13.621824","MEAN_MOTION":15.30199893,"ECCENTRICITY":0.00010391,"INCLINATION":53.156,"RA_OF_ASC_NODE":270.0425,"ARG_OF_PERICENTER":108.5574,"MEAN_ANOMALY":251.554,"EPHEMERIS_TYPE":0,"CLASSIFICATION_TYPE":"U","NORAD_CAT_ID":65496,"ELEMENT_SET_NO":999,"REV_AT_EPOCH":2865,"BSTAR":0.00078180196,"MEAN_MOTION_DOT":0.00022867,"MEAN_MOTION_DDOT":0}]
